      2.10          N: GNSS NAV DATA                        RINEX VERSION / TYPE
fic2rin                                 06/23/2023 00:18:12 PGM / RUN BY / DATE
                                                            END OF HEADER
6  23  6 22  1 59 44.0  .583673361689D-03 -.238742359215D-11  .000000000000D+00
     .100000000000D+02  .514687500000D+02  .388301888618D-08  .916311903749D+00
     .284239649773D-05  .271733349655D-02  .304169952869D-05  .515368673325D+04
     .352784000000D+06  .298023223877D-07  .188440101629D+01 -.633299350739D-07
     .989037736637D+00  .333156250000D+03 -.747117389147D+00 -.797926093967D-08
     .271797035723D-09  .100000000000D+01  .226700000000D+04  .000000000000D+00
     .240000000000D+01  .000000000000D+00  .372529029846D-08  .100000000000D+02
     .345600000000D+06  .400000000000D+01
28 23  6 22 18  0  0.0  .835936516523D-04  .227373675443D-12  .000000000000D+00
     .165000000000D+03  .135625000000D+02  .456733310490D-08  .699229367081D+00
     .685453414917D-06  .648004584946D-03  .723637640476D-05  .515369434738D+04
     .410400000000D+06  .260770320892D-07 -.130203886417D+01 -.726431608200D-07
     .961063246588D+00  .242625000000D+03  .168348330308D+01 -.798176104381D-08
     .251796202608D-09  .100000000000D+01  .226700000000D+04  .000000000000D+00
     .240000000000D+01  .000000000000D+00 -.977888703346D-08  .933000000000D+03
     .403200000000D+06  .400000000000D+01
22 23  6 22 18  0  0.0  .501901842654D-03  .579802872380D-11  .000000000000D+00
     .310000000000D+02 -.450937500000D+02  .427767818247D-08 -.141513024515D+01
    -.233761966228D-05  .143694593571D-01  .966526567936D-05  .515364796257D+04
     .410400000000D+06  .149011611938D-06 -.223162377245D+01  .378116965294D-06
     .962753823978D+00  .195343750000D+03 -.179950558337D+01 -.784211236974D-08
     .478591363823D-10  .100000000000D+01  .226700000000D+04  .000000000000D+00
     .240000000000D+01  .630000000000D+02 -.838190317154D-08  .310000000000D+02
     .403200000000D+06  .400000000000D+01
2  23  6 22 17 59 44.0 -.583308748901D-03  .363797880709D-11  .000000000000D+00
     .300000000000D+01  .638437500000D+02  .468340936851D-08 -.778504985572D+00
     .334903597832D-05  .159359989921D-01  .434555113316D-05  .515355642700D+04
     .410384000000D+06 -.219792127609D-06  .179304110930D+01  .204890966415D-07
     .967274921100D+00  .306218750000D+03 -.138004663154D+01 -.849142513051D-08
     .273582824394D-09  .100000000000D+01  .226700000000D+04  .000000000000D+00
     .240000000000D+01  .000000000000D+00 -.176951289177D-07  .300000000000D+01
     .406410000000D+06  .400000000000D+01
1  23  6 22 17 59 44.0  .176824163646D-03 -.227373675443D-11  .000000000000D+00
     .400000000000D+01  .616875000000D+02  .400873840862D-08  .284560020162D+01
     .297091901302D-05  .129238259979D-01  .334344804287D-05  .515364352608D+04
     .410384000000D+06  .186264514923D-07  .189227637538D+01 -.193715095520D-06
     .989843106687D+00  .329468750000D+03  .977740534635D+00 -.775568019807D-08
     .143934566881D-09  .100000000000D+01  .226700000000D+04  .000000000000D+00
     .240000000000D+01  .000000000000D+00  .465661287308D-08  .400000000000D+01
     .409110000000D+06  .400000000000D+01
1  23  6 22 19 59 44.0  .176807865500D-03 -.227373675443D-11  .000000000000D+00
     .500000000000D+01  .559375000000D+02  .406266922648D-08 -.238737466239D+01
     .272504985332D-05  .129243643023D-01  .332854688168D-05  .515364263916D+04
     .417584000000D+06  .216066837311D-06  .189221932450D+01 -.372529029846D-07
     .989844521329D+00  .329156250000D+03  .977727186970D+00 -.782354016757D-08
     .324299222650D-09  .100000000000D+01  .226700000000D+04  .000000000000D+00
     .240000000000D+01  .000000000000D+00  .465661287308D-08  .500000000000D+01
     .410400000000D+06  .400000000000D+01
2  23  6 22 19 59 44.0 -.583282671869D-03  .363797880709D-11  .000000000000D+00
     .320000000000D+02  .588437500000D+02  .462269255370D-08  .271736538758D+00
     .300072133541D-05  .159368041204D-01  .446662306786D-05  .515355783463D+04
     .417584000000D+06 -.171363353729D-06  .179298032506D+01 -.119209289551D-06
     .967276656121D+00  .300312500000D+03 -.138003479946D+01 -.850606859761D-08
     .183936233111D-09  .100000000000D+01  .226700000000D+04  .000000000000D+00
     .240000000000D+01  .000000000000D+00 -.176951289177D-07  .320000000000D+02
     .410400000000D+06  .400000000000D+01
8  23  6 22 20  0  0.0 -.128653366119D-03 -.181898940355D-11  .000000000000D+00
     .110000000000D+02  .593750000000D+02  .437911097898D-08 -.196805494379D+00
     .327080488205D-05  .846903503407D-02  .866316258907D-05  .515371751595D+04
     .417600000000D+06  .102445483208D-06  .799176451056D+00  .391155481339D-07
     .958468256667D+00  .211281250000D+03  .271694261888D+00 -.805962142987D-08
    -.403588239642D-10  .100000000000D+01  .226700000000D+04  .000000000000D+00
     .240000000000D+01  .000000000000D+00  .512227416039D-08  .110000000000D+02
     .410400000000D+06  .400000000000D+01
10 23  6 22 20  0  0.0 -.422489829361D-04 -.159161572810D-11  .000000000000D+00
     .370000000000D+02 -.710312500000D+02  .433232331580D-08  .180923668622D+01
    -.370852649212D-05  .853683520108D-02  .412948429585D-05  .515368975830D+04
     .417600000000D+06 -.203028321266D-06  .292001092554D+01  .521540641785D-07
     .979404996012D+00  .314093750000D+03 -.243494073568D+01 -.808855120634D-08
    -.150006248362D-09  .100000000000D+01  .226700000000D+04  .000000000000D+00
     .240000000000D+01  .000000000000D+00  .232830643654D-08  .370000000000D+02
     .410400000000D+06  .400000000000D+01
5  23  6 22 20  0  0.0 -.132120680064D-03 -.147792889038D-11  .000000000000D+00
     .112000000000D+03 -.725312500000D+02  .470305304389D-08  .207694959169D+00
    -.351853668690D-05  .602407904807D-02  .365078449249D-05  .515368732452D+04
     .417600000000D+06 -.279396772385D-07  .287575024835D+01  .298023223877D-07
     .966680126405D+00  .311187500000D+03  .116456202128D+01 -.840392148563D-08
    -.208222959036D-09  .100000000000D+01  .226700000000D+04  .000000000000D+00
     .240000000000D+01  .000000000000D+00 -.111758708954D-07  .112000000000D+03
     .410400000000D+06  .400000000000D+01
3  23  6 22 20  0  0.0 -.260816421360D-03  .140971678775D-10  .000000000000D+00
     .910000000000D+02 -.787812500000D+02  .419017453759D-08  .273281307689D+01
    -.424496829510D-05  .496431940701D-02  .426918268204D-05  .515365269470D+04
     .417600000000D+06 -.391155481339D-07  .292265261326D+01 -.149011611938D-06
     .979678032117D+00  .303843750000D+03  .104390765520D+01 -.793925927344D-08
    -.206080012631D-09  .100000000000D+01  .226700000000D+04  .000000000000D+00
     .340000000000D+01  .000000000000D+00  .186264514923D-08  .910000000000D+02
     .410400000000D+06  .400000000000D+01
4  23  6 22 20  0  0.0  .755297951400D-04  .104591890704D-10  .000000000000D+00
     .236000000000D+03 -.513125000000D+02  .426410618857D-08 -.641390149068D+00
    -.287406146526D-05  .240262679290D-02  .995583832264D-05  .515365917587D+04
     .417600000000D+06  .670552253723D-07 -.228019164473D+01 -.186264514923D-07
     .962946415681D+00  .189968750000D+03 -.298604753332D+01 -.779532470656D-08
     .310727228751D-10  .100000000000D+01  .226700000000D+04  .000000000000D+00
     .240000000000D+01  .000000000000D+00 -.465661287308D-08  .236000000000D+03
     .410400000000D+06  .400000000000D+01
31 23  6 22 20  0  0.0 -.218692235649D-03 -.795807864051D-12  .000000000000D+00
     .480000000000D+02  .111250000000D+02  .472376819248D-08  .234615315362D+01
     .372529029846D-06  .103267889936D-01  .722706317902D-05  .515357691956D+04
     .417600000000D+06 -.154599547386D-06 -.124493787559D+01 -.135973095894D-06
     .954001190962D+00  .240656250000D+03  .545000524911D+00 -.799390440678D-08
     .175721605224D-09  .100000000000D+01  .226700000000D+04  .000000000000D+00
     .240000000000D+01  .000000000000D+00 -.135041773319D-07  .480000000000D+02
     .410400000000D+06  .400000000000D+01
32 23  6 22 20  0  0.0 -.505973584950D-03 -.829913915368D-11  .000000000000D+00
     .570000000000D+02 -.642187500000D+02  .445625704956D-08  .442741955762D+00
    -.321306288242D-05  .693322054576D-02  .910647213459D-05  .515376125145D+04
     .417600000000D+06 -.689178705215D-07 -.232380873598D+01  .875443220139D-07
     .959898503397D+00  .205625000000D+03 -.220053359313D+01 -.798461830569D-08
     .357157734196D-11  .100000000000D+01  .226700000000D+04  .000000000000D+00
     .240000000000D+01  .000000000000D+00  .465661287308D-09  .570000000000D+02
     .410400000000D+06  .400000000000D+01
24 23  6 22 20  0  0.0 -.233832746744D-03 -.128466126625D-10  .000000000000D+00
     .390000000000D+02  .768750000000D+01  .503520973670D-08 -.206850772782D+01
     .430271029472D-06  .139682031004D-01  .730529427528D-05  .515364375496D+04
     .417600000000D+06  .135973095894D-06 -.135621764171D+01 -.160187482834D-06
     .933505408773D+00  .223250000000D+03  .897459243351D+00 -.797533220460D-08
     .365372362083D-09  .100000000000D+01  .226700000000D+04  .000000000000D+00
     .240000000000D+01  .000000000000D+00  .279396772385D-08  .390000000000D+02
     .410400000000D+06  .400000000000D+01
16 23  6 22 20  0  0.0 -.488746911287D-03  .397903932026D-11  .000000000000D+00
     .410000000000D+02 -.937500000000D+00  .442804158856D-08  .732725857933D+00
     .558793544769D-07  .132935765432D-01  .741146504879D-05  .515361306953D+04
     .417600000000D+06 -.199303030968D-06 -.132023543653D+00  .108033418655D-06
     .965119407863D+00  .241062500000D+03  .789584574121D+00 -.806247869174D-08
    -.408945605655D-09  .100000000000D+01  .226700000000D+04  .000000000000D+00
     .240000000000D+01  .000000000000D+00 -.102445483208D-07  .410000000000D+02
     .410400000000D+06  .400000000000D+01
